NORAD_CAT_ID,OBJECT_NAME,OBJECT_TYPE,EPOCH,MEAN_MOTION,ECCENTRICITY,INCLINATION,RA_OF_ASC_NODE,ARG_OF_PERICENTER,MEAN_ANOMALY,BSTAR,MEAN_MOTION_DOT,MEAN_MOTION_DDOT,TLE_LINE0,TLE_LINE1,TLE_LINE2,SEMIMAJOR_AXIS,PERIOD,APOGEE,PERIGEE,DECAYED
50828.0,STARLINK-3290,PAYLOAD,2022-01-11 20:00:01,15.94773829,0.0053909,53.2175,175.5763,179.5697,216.736,-0.0020044,-0.00917019,0.00026899,0 STARLINK-3290,1 50828U 22001AB  22011.83334491 -.00917019  26899-3 -20044-2 0  9997,2 50828  53.2175 175.5763 0053909 179.5697 216.7360 15.94773829  2082,6667.081999999999,90.295,324.888,253.005,0.0
50828.0,STARLINK-3290,PAYLOAD,2022-01-12 06:00:00,15.94024745,0.0050494,53.2174,173.4468,181.2891,88.0207,-0.0020508,-0.00883169,0.00024947,0 STARLINK-3290,1 50828U 22001AB  22012.25001157 -.00883169  24947-3 -20508-2 0  9999,2 50828  53.2174 173.4468 0050494 181.2891  88.0207 15.94024745  2145,6669.17,90.337,324.711,257.36,0.0
50828.0,STARLINK-3290,PAYLOAD,2022-01-12 14:00:01,15.93459334,0.0047508,53.2177,171.7473,182.2501,200.6568,-0.0022497,-0.00924532,0.00026941,0 STARLINK-3290,1 50828U 22001AB  22012.58334491 -.00924532  26941-3 -22497-2 0  9990,2 50828  53.2177 171.7473 0047508 182.2501 200.6568 15.93459334  1434,6670.748000000001,90.369,324.3040000000001,260.921,0.0
50828.0,STARLINK-3290,PAYLOAD,2022-01-12 16:00:00,15.93287747,0.0046805,53.2175,171.32299999999995,182.3231,318.8836,-0.0021503,-0.00872896,0.00024247,0 STARLINK-3290,1 50828U 22001AB  22012.66667824 -.00872896  24247-3 -21503-2 0  9997,2 50828  53.2175 171.3230 0046805 182.3231 318.8836 15.93287747  2213,6671.227,90.379,324.316,261.867,0.0
50828.0,STARLINK-3290,PAYLOAD,2022-01-12 22:00:00,15.92849153,0.0044366,53.2173,170.0497,185.347,310.4685,-0.0022295,-0.00873781,0.00024186,0 STARLINK-3290,1 50828U 22001AB  22012.91667824 -.00873781  24186-3 -22295-2 0  9990,2 50828  53.2173 170.0497 0044366 185.3470 310.4685 15.92849153  2258,6672.451,90.404,323.9190000000001,264.713,0.0
50828.0,STARLINK-3290,PAYLOAD,2022-01-13 14:00:01,15.91700084,0.0038583,53.2174,166.6554,188.8548,170.6437,-0.0025633,-0.00921903,0.00026343,0 STARLINK-3290,1 50828U 22001AB  22013.58334491 -.00921903  26343-3 -25633-2 0  9991,2 50828  53.2174 166.6554 0038583 188.8548 170.6437 15.91700084  2352,6675.6619999999975,90.469,323.284,271.77,0.0
50828.0,STARLINK-3290,PAYLOAD,2022-01-13 20:00:01,15.91258241,0.0036818,53.2174,165.3858,190.7315,161.9247,-0.0026277,-0.00917326,0.00025996,0 STARLINK-3290,1 50828U 22001AB  22013.83334491 -.00917326  25996-3 -26277-2 0  9991,2 50828  53.2174 165.3858 0036818 190.7315 161.9247 15.91258241  2397,6676.898,90.494,323.346,274.18,0.0
50828.0,STARLINK-3290,PAYLOAD,2022-01-13 22:00:00,15.91100837,0.0036125,53.2172,164.9621,191.0326,279.2584,-0.0025854,-0.00893161,0.00024736,0 STARLINK-3290,1 50828U 22001AB  22013.91667824 -.00893161  24736-3 -25854-2 0  9990,2 50828  53.2172 164.9621 0036125 191.0326 279.2584 15.91100837  1646,6677.3380000000025,90.503,323.325,275.081,0.0
50828.0,STARLINK-3290,PAYLOAD,2022-01-14 06:00:00,15.90503408,0.0033173,53.2175,163.2668,193.39,26.9916,-0.0026224,-0.00869809,0.00023447,0 STARLINK-3290,1 50828U 22001AB  22014.25001157 -.00869809  23447-3 -26224-2 0  9991,2 50828  53.2175 163.2668 0033173 193.3900  26.9916 15.90503408  2462,6679.01,90.537,323.031,278.719,0.0
50828.0,STARLINK-3290,PAYLOAD,2022-01-14 14:00:01,15.89939384,0.0030356,53.2176,161.5766,196.0925,133.6614,-0.0028665,-0.00915311,0.00025567,0 STARLINK-3290,1 50828U 22001AB  22014.58334491 -.00915311  25567-3 -28665-2 0  9993,2 50828  53.2176 161.5766 0030356 196.0925 133.6614 15.89939384  2511,6680.59,90.569,322.7340000000001,282.175,0.0
50828.0,STARLINK-3290,PAYLOAD,2022-01-14 22:00:00,15.89353227,0.0027852,53.2171,159.8875,198.7552,239.6747,-0.002969,-0.00913824,0.00025351,0 STARLINK-3290,1 50828U 22001AB  22014.91667824 -.00913824  25351-3 -29690-2 0  9996,2 50828  53.2171 159.8875 0027852 198.7552 239.6747 15.89353227  2575,6682.232,90.603,322.708,285.486,0.0
50828.0,STARLINK-3290,PAYLOAD,2022-01-15 04:00:00,15.88913238,0.0025517,53.2174,158.6192,201.8541,227.6228,-0.0030517,-0.00913324,0.00025221,0 STARLINK-3290,1 50828U 22001AB  22015.16667824 -.00913324  25221-3 -30517-2 0  9995,2 50828  53.2174 158.6192 0025517 201.8541 227.6228 15.88913238  2616,6683.465999999999,90.628,322.385,288.276,0.0
50828.0,STARLINK-3290,PAYLOAD,2022-01-15 14:00:01,15.88174045,0.002236,53.2175,156.5109,205.6445,88.0962,-0.0031406,-0.00899565,0.0002437,0 STARLINK-3290,1 50828U 22001AB  22015.58335648 -.00899565  24370-3 -31406-2 0  9999,2 50828  53.2175 156.5109 0022360 205.6445  88.0962 15.88174045  2675,6685.5390000000025,90.67,322.353,292.455,0.0
50828.0,STARLINK-3290,PAYLOAD,2022-01-15 22:00:01,15.87601165,0.0019868,53.2171,154.8257,210.4186,189.8816,-0.0033411,-0.00925474,0.00025516,0 STARLINK-3290,1 50828U 22001AB  22015.91668981 -.00925474  25516-3 -33411-2 0  9995,2 50828  53.2171 154.8257 0019868 210.4186 189.8816 15.87601165  2733,6687.147,90.703,322.2990000000001,295.726,0.0
50828.0,STARLINK-3290,PAYLOAD,2022-01-16 06:00:00,15.86996751,0.0016894,53.2172,153.1395,216.052,290.0503,-0.003318,-0.00888081,0.00023553,0 STARLINK-3290,1 50828U 22001AB  22016.25001157 -.00888081  23553-3 -33180-2 0  9993,2 50828  53.2172 153.1395 0016894 216.0520 290.0503 15.86996751  2789,6688.845,90.737,322.01,299.41,0.0
50828.0,STARLINK-3290,PAYLOAD,2022-01-16 14:00:01,15.86407507,0.0014775,53.2173,151.4584,222.562,28.697,-0.0033993,-0.00808368,0.0,0 STARLINK-3290,1 50828U 22001AB  22016.58334491 -.00808368  00000-0 -33993-2 0  9990,2 50828  53.2173 151.4584 0014775 222.5620  28.6970 15.86407507  2071,6690.501,90.771,322.252,302.481,0.0
50828.0,STARLINK-3290,PAYLOAD,2022-01-16 22:00:00,15.85841411,0.001285,53.217,149.7775,231.7649,123.9389,-0.0036608,-0.00841129,0.0,0 STARLINK-3290,1 50828U 22001AB  22016.91667824 -.00841129  00000-0 -36608-2 0  9994,2 50828  53.2170 149.7775 0012850 231.7649 123.9389 15.85841411  2129,6692.094,90.804,322.558,305.3590000000001,0.0
50828.0,STARLINK-3290,PAYLOAD,2022-01-17 06:00:00,15.85248814,0.0010707,53.2173,148.0955,243.5555,215.9008,-0.0037272,-0.0083054,0.0,0 STARLINK-3290,1 50828U 22001AB  22017.25001157 -.00830540  00000-0 -37272-2 0  9996,2 50828  53.2173 148.0955 0010707 243.5555 215.9008 15.85248814  2948,6693.761,90.837,322.793,308.459,0.0
50828.0,STARLINK-3290,PAYLOAD,2022-01-17 14:00:01,15.84648623,0.0009252,53.2175,146.4188,257.1178,305.3866,-0.0037131,-0.0080461,0.0,0 STARLINK-3290,1 50828U 22001AB  22017.58334491 -.00804610  00000-0 -37131-2 0  9995,2 50828  53.2175 146.4188 0009252 257.1178 305.3866 15.84648623  2234,6695.451,90.872,323.511,311.122,0.0
50828.0,STARLINK-3290,PAYLOAD,2022-01-17 22:00:00,15.84067413,0.000792,53.2171,144.7419,266.4732,38.3691,-0.0038542,-0.0081045,0.0,0 STARLINK-3290,1 50828U 22001AB  22017.91667824 -.00810450  00000-0 -38542-2 0  9997,2 50828  53.2171 144.7419 0007920 266.4732  38.3691 15.84067413  2283,6697.089,90.905,324.258,313.65,0.0
50828.0,STARLINK-3290,PAYLOAD,2022-01-18 14:00:01,15.82910136,0.0002317,53.2171,141.3922,273.0704,234.3358,-0.0042307,-0.00835882,0.0,0 STARLINK-3290,1 50828U 22001AB  22018.58334491 -.00835882  00000-0 -42307-2 0  9992,2 50828  53.2171 141.3922 0002317 273.0704 234.3358 15.82910136  3155,6700.353,90.972,323.77,320.665,0.0
50828.0,STARLINK-3290,PAYLOAD,2022-01-18 22:00:00,15.82315002,0.0001378,53.2172,139.7194,175.4957,72.1419,-0.0042586,-0.00819252,0.0,0 STARLINK-3290,1 50828U 22001AB  22018.91667824 -.00819252  00000-0 -42586-2 0  9990,2 50828  53.2172 139.7194 0001378 175.4957  72.1419 15.82315002  2447,6702.033,91.006,324.821,322.974,0.0
50828.0,STARLINK-3290,PAYLOAD,2022-01-19 14:00:01,15.81049102,0.0001215,53.2169,136.3783,91.03,355.0039,-0.0038028,-0.00699123,0.0,0 STARLINK-3290,1 50828U 22001AB  22019.58334491 -.00699123  00000-0 -38028-2 0  9994,2 50828  53.2169 136.3783 0001215  91.0300 355.0039 15.81049102  2552,6705.61,91.079,328.289,326.66,0.0
50828.0,STARLINK-3290,PAYLOAD,2022-01-19 22:00:00,15.80560774,0.0001133,53.2172,134.7101,98.5851,85.5111,-0.0046562,-0.0082457,0.0,0 STARLINK-3290,1 50828U 22001AB  22019.91667824 -.00824570  00000-0 -46562-2 0  9998,2 50828  53.2172 134.7101 0001133  98.5851  85.5111 15.80560774  3362,6706.991,91.107,329.616,328.096,0.0
50828.0,STARLINK-3290,PAYLOAD,2022-01-20 14:00:01,15.79296736,0.000102,53.2168,131.3777,84.4629,293.8027,-0.0041584,-0.0070463,0.0,0 STARLINK-3290,1 50828U 22001AB  22020.58334491 -.00704630  00000-0 -41584-2 0  9997,2 50828  53.2168 131.3777 0001020  84.4629 293.8027 15.79296736  2711,6710.569,91.18,333.119,331.75,0.0
50828.0,STARLINK-3290,PAYLOAD,2022-01-20 22:00:00,15.78802581,0.0001017,53.2173,129.7136,86.5953,27.6244,-0.0050354,-0.00822649,0.0,0 STARLINK-3290,1 50828U 22001AB  22020.91667824 -.00822649  00000-0 -50354-2 0  9999,2 50828  53.2173 129.7136 0001017  86.5953  27.6244 15.78802581  3520,6711.969,91.208,334.517,333.152,0.0
50828.0,STARLINK-3290,PAYLOAD,2022-01-21 14:00:01,15.77558538,0.0001228,53.2168,126.3902,81.3847,222.7676,-0.004657,-0.00727403,0.0,0 STARLINK-3290,1 50828U 22001AB  22021.58334491 -.00727403  00000-0 -46570-2 0  9991,2 50828  53.2168 126.3902 0001228  81.3847 222.7676 15.77558538  2870,6715.496999999999,91.28,338.1869999999999,336.538,0.0
50828.0,STARLINK-3290,PAYLOAD,2022-01-21 20:00:01,15.77190809,0.0001061,53.2172,125.1456,79.2955,205.3038,-0.0054004,-0.00820509,0.0,0 STARLINK-3290,1 50828U 22001AB  22021.83334491 -.00820509  00000-0 -54004-2 0  9991,2 50828  53.2172 125.1456 0001061  79.2955 205.3038 15.77190809  3667,6716.541,91.302,339.119,337.694,0.0
50828.0,STARLINK-3290,PAYLOAD,2022-01-21 22:00:00,15.77044038,9.59e-05,53.2173,124.7303,79.9619,318.0453,-0.005436,-0.00820475,0.0,0 STARLINK-3290,1 50828U 22001AB  22021.91667824 -.00820475  00000-0 -54360-2 0  9996,2 50828  53.2173 124.7303 0000959  79.9619 318.0453 15.77044038  2926,6716.958000000001,91.31,339.467,338.1790000000001,0.0
